{
  "type": "FeatureCollection",
  "metadata": {
    "total_points": 148,
    "incident_time": "2023-01-21T16:27:00-08:00",
    "generated_at": "2026-07-30T23:34:45Z",
    "source_timezone": "UTC-8 (Pacific Standard Time)"
  },
  "features": [
    {
      "type": "Feature",
      "geometry": {
        "type": "Point",
        "coordinates": [
          -118.0701715,
          33.912643,
          0.0
        ]
      },
      "properties": {
        "sequence": 1,
        "name": "1/21/2023 7:14:17 AM(UTC-8)",
        "time_utc": "2023-01-21T15:14:17Z",
        "time_local": "2023-01-21T07:14:17-0800",
        "time_display": "01/21/2023 07:14:17 AM UTC-08:00",
        "unix_timestamp": 1674314057,
        "minutes_to_incident": -552.7,
        "raw_timestamp": "2023-01-21T07:14:17.914-08:00"
      }
    },
    {
      "type": "Feature",
      "geometry": {
        "type": "Point",
        "coordinates": [
          -118.0701715,
          33.912643,
          0.0
        ]
      },
      "properties": {
        "sequence": 2,
        "name": "1/21/2023 7:14:24 AM(UTC-8)",
        "time_utc": "2023-01-21T15:14:24Z",
        "time_local": "2023-01-21T07:14:24-0800",
        "time_display": "01/21/2023 07:14:24 AM UTC-08:00",
        "unix_timestamp": 1674314064,
        "minutes_to_incident": -552.6,
        "raw_timestamp": "2023-01-21T07:14:24.1-08:00"
      }
    },
    {
      "type": "Feature",
      "geometry": {
        "type": "Point",
        "coordinates": [
          -118.0709661,
          33.9117022,
          0.0
        ]
      },
      "properties": {
        "sequence": 3,
        "name": "1/21/2023 7:16:42 AM(UTC-8)",
        "time_utc": "2023-01-21T15:16:42Z",
        "time_local": "2023-01-21T07:16:42-0800",
        "time_display": "01/21/2023 07:16:42 AM UTC-08:00",
        "unix_timestamp": 1674314202,
        "minutes_to_incident": -550.3,
        "raw_timestamp": "2023-01-21T07:16:42.142-08:00"
      }
    },
    {
      "type": "Feature",
      "geometry": {
        "type": "Point",
        "coordinates": [
          -118.070899,
          33.9114285,
          0.0
        ]
      },
      "properties": {
        "sequence": 4,
        "name": "1/21/2023 7:17:47 AM(UTC-8)",
        "time_utc": "2023-01-21T15:17:47Z",
        "time_local": "2023-01-21T07:17:47-0800",
        "time_display": "01/21/2023 07:17:47 AM UTC-08:00",
        "unix_timestamp": 1674314267,
        "minutes_to_incident": -549.21,
        "raw_timestamp": "2023-01-21T07:17:47.7-08:00"
      }
    },
    {
      "type": "Feature",
      "geometry": {
        "type": "Point",
        "coordinates": [
          -118.06165,
          33.90495,
          0.0
        ]
      },
      "properties": {
        "sequence": 5,
        "name": "1/21/2023 7:18:08 AM(UTC-8)",
        "time_utc": "2023-01-21T15:18:08Z",
        "time_local": "2023-01-21T07:18:08-0800",
        "time_display": "01/21/2023 07:18:08 AM UTC-08:00",
        "unix_timestamp": 1674314288,
        "minutes_to_incident": -548.87,
        "raw_timestamp": "2023-01-21T07:18:08-08:00"
      }
    },
    {
      "type": "Feature",
      "geometry": {
        "type": "Point",
        "coordinates": [
          -118.06575,
          33.91125,
          0.0
        ]
      },
      "properties": {
        "sequence": 6,
        "name": "1/21/2023 7:18:40 AM(UTC-8)",
        "time_utc": "2023-01-21T15:18:40Z",
        "time_local": "2023-01-21T07:18:40-0800",
        "time_display": "01/21/2023 07:18:40 AM UTC-08:00",
        "unix_timestamp": 1674314320,
        "minutes_to_incident": -548.33,
        "raw_timestamp": "2023-01-21T07:18:40-08:00"
      }
    },
    {
      "type": "Feature",
      "geometry": {
        "type": "Point",
        "coordinates": [
          -118.07005,
          33.9174,
          0.0
        ]
      },
      "properties": {
        "sequence": 7,
        "name": "1/21/2023 7:19:28 AM(UTC-8)",
        "time_utc": "2023-01-21T15:19:28Z",
        "time_local": "2023-01-21T07:19:28-0800",
        "time_display": "01/21/2023 07:19:28 AM UTC-08:00",
        "unix_timestamp": 1674314368,
        "minutes_to_incident": -547.53,
        "raw_timestamp": "2023-01-21T07:19:28-08:00"
      }
    },
    {
      "type": "Feature",
      "geometry": {
        "type": "Point",
        "coordinates": [
          -118.0756,
          33.91605,
          0.0
        ]
      },
      "properties": {
        "sequence": 8,
        "name": "1/21/2023 7:23:44 AM(UTC-8)",
        "time_utc": "2023-01-21T15:23:44Z",
        "time_local": "2023-01-21T07:23:44-0800",
        "time_display": "01/21/2023 07:23:44 AM UTC-08:00",
        "unix_timestamp": 1674314624,
        "minutes_to_incident": -543.27,
        "raw_timestamp": "2023-01-21T07:23:44-08:00"
      }
    },
    {
      "type": "Feature",
      "geometry": {
        "type": "Point",
        "coordinates": [
          -118.0707837,
          33.9117128,
          0.0
        ]
      },
      "properties": {
        "sequence": 9,
        "name": "1/21/2023 7:26:04 AM(UTC-8)",
        "time_utc": "2023-01-21T15:26:04Z",
        "time_local": "2023-01-21T07:26:04-0800",
        "time_display": "01/21/2023 07:26:04 AM UTC-08:00",
        "unix_timestamp": 1674314764,
        "minutes_to_incident": -540.92,
        "raw_timestamp": "2023-01-21T07:26:04.736-08:00"
      }
    },
    {
      "type": "Feature",
      "geometry": {
        "type": "Point",
        "coordinates": [
          -118.0707899,
          33.9117083,
          0.0
        ]
      },
      "properties": {
        "sequence": 10,
        "name": "1/21/2023 7:37:55 AM(UTC-8)",
        "time_utc": "2023-01-21T15:37:55Z",
        "time_local": "2023-01-21T07:37:55-0800",
        "time_display": "01/21/2023 07:37:55 AM UTC-08:00",
        "unix_timestamp": 1674315475,
        "minutes_to_incident": -529.07,
        "raw_timestamp": "2023-01-21T07:37:55.556-08:00"
      }
    },
    {
      "type": "Feature",
      "geometry": {
        "type": "Point",
        "coordinates": [
          -118.0707742,
          33.911718,
          0.0
        ]
      },
      "properties": {
        "sequence": 11,
        "name": "1/21/2023 7:47:53 AM(UTC-8)",
        "time_utc": "2023-01-21T15:47:53Z",
        "time_local": "2023-01-21T07:47:53-0800",
        "time_display": "01/21/2023 07:47:53 AM UTC-08:00",
        "unix_timestamp": 1674316073,
        "minutes_to_incident": -519.1,
        "raw_timestamp": "2023-01-21T07:47:53.951-08:00"
      }
    },
    {
      "type": "Feature",
      "geometry": {
        "type": "Point",
        "coordinates": [
          -118.0707821,
          33.9117126,
          0.0
        ]
      },
      "properties": {
        "sequence": 12,
        "name": "1/21/2023 7:48:35 AM(UTC-8)",
        "time_utc": "2023-01-21T15:48:35Z",
        "time_local": "2023-01-21T07:48:35-0800",
        "time_display": "01/21/2023 07:48:35 AM UTC-08:00",
        "unix_timestamp": 1674316115,
        "minutes_to_incident": -518.4,
        "raw_timestamp": "2023-01-21T07:48:35.758-08:00"
      }
    },
    {
      "type": "Feature",
      "geometry": {
        "type": "Point",
        "coordinates": [
          -118.0707755,
          33.9117167,
          0.0
        ]
      },
      "properties": {
        "sequence": 13,
        "name": "1/21/2023 8:20:27 AM(UTC-8)",
        "time_utc": "2023-01-21T16:20:27Z",
        "time_local": "2023-01-21T08:20:27-0800",
        "time_display": "01/21/2023 08:20:27 AM UTC-08:00",
        "unix_timestamp": 1674318027,
        "minutes_to_incident": -486.54,
        "raw_timestamp": "2023-01-21T08:20:27.772-08:00"
      }
    },
    {
      "type": "Feature",
      "geometry": {
        "type": "Point",
        "coordinates": [
          -118.0707742,
          33.9117186,
          0.0
        ]
      },
      "properties": {
        "sequence": 14,
        "name": "1/21/2023 8:21:00 AM(UTC-8)",
        "time_utc": "2023-01-21T16:21:00Z",
        "time_local": "2023-01-21T08:21:00-0800",
        "time_display": "01/21/2023 08:21:00 AM UTC-08:00",
        "unix_timestamp": 1674318060,
        "minutes_to_incident": -486.0,
        "raw_timestamp": "2023-01-21T08:21:00.06-08:00"
      }
    },
    {
      "type": "Feature",
      "geometry": {
        "type": "Point",
        "coordinates": [
          -118.0707905,
          33.9117081,
          0.0
        ]
      },
      "properties": {
        "sequence": 15,
        "name": "1/21/2023 8:55:29 AM(UTC-8)",
        "time_utc": "2023-01-21T16:55:29Z",
        "time_local": "2023-01-21T08:55:29-0800",
        "time_display": "01/21/2023 08:55:29 AM UTC-08:00",
        "unix_timestamp": 1674320129,
        "minutes_to_incident": -451.5,
        "raw_timestamp": "2023-01-21T08:55:29.734-08:00"
      }
    },
    {
      "type": "Feature",
      "geometry": {
        "type": "Point",
        "coordinates": [
          -118.0707851,
          33.9117247,
          0.0
        ]
      },
      "properties": {
        "sequence": 16,
        "name": "1/21/2023 9:51:41 AM(UTC-8)",
        "time_utc": "2023-01-21T17:51:41Z",
        "time_local": "2023-01-21T09:51:41-0800",
        "time_display": "01/21/2023 09:51:41 AM UTC-08:00",
        "unix_timestamp": 1674323501,
        "minutes_to_incident": -395.3,
        "raw_timestamp": "2023-01-21T09:51:41.812-08:00"
      }
    },
    {
      "type": "Feature",
      "geometry": {
        "type": "Point",
        "coordinates": [
          -118.0707819,
          33.9117129,
          0.0
        ]
      },
      "properties": {
        "sequence": 17,
        "name": "1/21/2023 9:52:13 AM(UTC-8)",
        "time_utc": "2023-01-21T17:52:13Z",
        "time_local": "2023-01-21T09:52:13-0800",
        "time_display": "01/21/2023 09:52:13 AM UTC-08:00",
        "unix_timestamp": 1674323533,
        "minutes_to_incident": -394.77,
        "raw_timestamp": "2023-01-21T09:52:13.501-08:00"
      }
    },
    {
      "type": "Feature",
      "geometry": {
        "type": "Point",
        "coordinates": [
          -118.072192,
          33.9141269,
          0.0
        ]
      },
      "properties": {
        "sequence": 18,
        "name": "1/21/2023 9:59:09 AM(UTC-8)",
        "time_utc": "2023-01-21T17:59:09Z",
        "time_local": "2023-01-21T09:59:09-0800",
        "time_display": "01/21/2023 09:59:09 AM UTC-08:00",
        "unix_timestamp": 1674323949,
        "minutes_to_incident": -387.84,
        "raw_timestamp": "2023-01-21T09:59:09.318-08:00"
      }
    },
    {
      "type": "Feature",
      "geometry": {
        "type": "Point",
        "coordinates": [
          -118.0742,
          33.91145,
          0.0
        ]
      },
      "properties": {
        "sequence": 19,
        "name": "1/21/2023 10:00:16 AM(UTC-8)",
        "time_utc": "2023-01-21T18:00:16Z",
        "time_local": "2023-01-21T10:00:16-0800",
        "time_display": "01/21/2023 10:00:16 AM UTC-08:00",
        "unix_timestamp": 1674324016,
        "minutes_to_incident": -386.73,
        "raw_timestamp": "2023-01-21T10:00:16-08:00"
      }
    },
    {
      "type": "Feature",
      "geometry": {
        "type": "Point",
        "coordinates": [
          -118.07905,
          33.9069,
          0.0
        ]
      },
      "properties": {
        "sequence": 20,
        "name": "1/21/2023 10:01:20 AM(UTC-8)",
        "time_utc": "2023-01-21T18:01:20Z",
        "time_local": "2023-01-21T10:01:20-0800",
        "time_display": "01/21/2023 10:01:20 AM UTC-08:00",
        "unix_timestamp": 1674324080,
        "minutes_to_incident": -385.67,
        "raw_timestamp": "2023-01-21T10:01:20-08:00"
      }
    },
    {
      "type": "Feature",
      "geometry": {
        "type": "Point",
        "coordinates": [
          -118.07645,
          33.9024,
          0.0
        ]
      },
      "properties": {
        "sequence": 21,
        "name": "1/21/2023 10:02:24 AM(UTC-8)",
        "time_utc": "2023-01-21T18:02:24Z",
        "time_local": "2023-01-21T10:02:24-0800",
        "time_display": "01/21/2023 10:02:24 AM UTC-08:00",
        "unix_timestamp": 1674324144,
        "minutes_to_incident": -384.6,
        "raw_timestamp": "2023-01-21T10:02:24-08:00"
      }
    },
    {
      "type": "Feature",
      "geometry": {
        "type": "Point",
        "coordinates": [
          -118.0763,
          33.8974,
          0.0
        ]
      },
      "properties": {
        "sequence": 22,
        "name": "1/21/2023 10:03:28 AM(UTC-8)",
        "time_utc": "2023-01-21T18:03:28Z",
        "time_local": "2023-01-21T10:03:28-0800",
        "time_display": "01/21/2023 10:03:28 AM UTC-08:00",
        "unix_timestamp": 1674324208,
        "minutes_to_incident": -383.53,
        "raw_timestamp": "2023-01-21T10:03:28-08:00"
      }
    },
    {
      "type": "Feature",
      "geometry": {
        "type": "Point",
        "coordinates": [
          -118.0771,
          33.8928,
          0.0
        ]
      },
      "properties": {
        "sequence": 23,
        "name": "1/21/2023 10:04:32 AM(UTC-8)",
        "time_utc": "2023-01-21T18:04:32Z",
        "time_local": "2023-01-21T10:04:32-0800",
        "time_display": "01/21/2023 10:04:32 AM UTC-08:00",
        "unix_timestamp": 1674324272,
        "minutes_to_incident": -382.47,
        "raw_timestamp": "2023-01-21T10:04:32-08:00"
      }
    },
    {
      "type": "Feature",
      "geometry": {
        "type": "Point",
        "coordinates": [
          -118.077793,
          33.8915182,
          0.0
        ]
      },
      "properties": {
        "sequence": 24,
        "name": "1/21/2023 10:06:34 AM(UTC-8)",
        "time_utc": "2023-01-21T18:06:34Z",
        "time_local": "2023-01-21T10:06:34-0800",
        "time_display": "01/21/2023 10:06:34 AM UTC-08:00",
        "unix_timestamp": 1674324394,
        "minutes_to_incident": -380.43,
        "raw_timestamp": "2023-01-21T10:06:34.464-08:00"
      }
    },
    {
      "type": "Feature",
      "geometry": {
        "type": "Point",
        "coordinates": [
          -118.07875,
          33.8883,
          0.0
        ]
      },
      "properties": {
        "sequence": 25,
        "name": "1/21/2023 10:07:44 AM(UTC-8)",
        "time_utc": "2023-01-21T18:07:44Z",
        "time_local": "2023-01-21T10:07:44-0800",
        "time_display": "01/21/2023 10:07:44 AM UTC-08:00",
        "unix_timestamp": 1674324464,
        "minutes_to_incident": -379.27,
        "raw_timestamp": "2023-01-21T10:07:44-08:00"
      }
    },
    {
      "type": "Feature",
      "geometry": {
        "type": "Point",
        "coordinates": [
          -118.0799,
          33.8945,
          0.0
        ]
      },
      "properties": {
        "sequence": 26,
        "name": "1/21/2023 10:16:00 AM(UTC-8)",
        "time_utc": "2023-01-21T18:16:00Z",
        "time_local": "2023-01-21T10:16:00-0800",
        "time_display": "01/21/2023 10:16:00 AM UTC-08:00",
        "unix_timestamp": 1674324960,
        "minutes_to_incident": -371.0,
        "raw_timestamp": "2023-01-21T10:16:00-08:00"
      }
    },
    {
      "type": "Feature",
      "geometry": {
        "type": "Point",
        "coordinates": [
          -118.07605,
          33.88995,
          0.0
        ]
      },
      "properties": {
        "sequence": 27,
        "name": "1/21/2023 10:19:12 AM(UTC-8)",
        "time_utc": "2023-01-21T18:19:12Z",
        "time_local": "2023-01-21T10:19:12-0800",
        "time_display": "01/21/2023 10:19:12 AM UTC-08:00",
        "unix_timestamp": 1674325152,
        "minutes_to_incident": -367.8,
        "raw_timestamp": "2023-01-21T10:19:12-08:00"
      }
    },
    {
      "type": "Feature",
      "geometry": {
        "type": "Point",
        "coordinates": [
          -118.07795,
          33.88535,
          0.0
        ]
      },
      "properties": {
        "sequence": 28,
        "name": "1/21/2023 10:20:48 AM(UTC-8)",
        "time_utc": "2023-01-21T18:20:48Z",
        "time_local": "2023-01-21T10:20:48-0800",
        "time_display": "01/21/2023 10:20:48 AM UTC-08:00",
        "unix_timestamp": 1674325248,
        "minutes_to_incident": -366.2,
        "raw_timestamp": "2023-01-21T10:20:48-08:00"
      }
    },
    {
      "type": "Feature",
      "geometry": {
        "type": "Point",
        "coordinates": [
          -118.0766659,
          33.8899377,
          0.0
        ]
      },
      "properties": {
        "sequence": 29,
        "name": "1/21/2023 10:25:57 AM(UTC-8)",
        "time_utc": "2023-01-21T18:25:57Z",
        "time_local": "2023-01-21T10:25:57-0800",
        "time_display": "01/21/2023 10:25:57 AM UTC-08:00",
        "unix_timestamp": 1674325557,
        "minutes_to_incident": -361.04,
        "raw_timestamp": "2023-01-21T10:25:57.584-08:00"
      }
    },
    {
      "type": "Feature",
      "geometry": {
        "type": "Point",
        "coordinates": [
          -118.0766659,
          33.8899377,
          0.0
        ]
      },
      "properties": {
        "sequence": 30,
        "name": "1/21/2023 10:30:09 AM(UTC-8)",
        "time_utc": "2023-01-21T18:30:09Z",
        "time_local": "2023-01-21T10:30:09-0800",
        "time_display": "01/21/2023 10:30:09 AM UTC-08:00",
        "unix_timestamp": 1674325809,
        "minutes_to_incident": -356.84,
        "raw_timestamp": "2023-01-21T10:30:09.751-08:00"
      }
    },
    {
      "type": "Feature",
      "geometry": {
        "type": "Point",
        "coordinates": [
          -118.0766389,
          33.8896988,
          0.0
        ]
      },
      "properties": {
        "sequence": 31,
        "name": "1/21/2023 10:32:40 AM(UTC-8)",
        "time_utc": "2023-01-21T18:32:40Z",
        "time_local": "2023-01-21T10:32:40-0800",
        "time_display": "01/21/2023 10:32:40 AM UTC-08:00",
        "unix_timestamp": 1674325960,
        "minutes_to_incident": -354.32,
        "raw_timestamp": "2023-01-21T10:32:40.761-08:00"
      }
    },
    {
      "type": "Feature",
      "geometry": {
        "type": "Point",
        "coordinates": [
          -118.07705,
          33.8909,
          0.0
        ]
      },
      "properties": {
        "sequence": 32,
        "name": "1/21/2023 10:33:04 AM(UTC-8)",
        "time_utc": "2023-01-21T18:33:04Z",
        "time_local": "2023-01-21T10:33:04-0800",
        "time_display": "01/21/2023 10:33:04 AM UTC-08:00",
        "unix_timestamp": 1674325984,
        "minutes_to_incident": -353.93,
        "raw_timestamp": "2023-01-21T10:33:04-08:00"
      }
    },
    {
      "type": "Feature",
      "geometry": {
        "type": "Point",
        "coordinates": [
          -118.0748,
          33.89625,
          0.0
        ]
      },
      "properties": {
        "sequence": 33,
        "name": "1/21/2023 10:34:40 AM(UTC-8)",
        "time_utc": "2023-01-21T18:34:40Z",
        "time_local": "2023-01-21T10:34:40-0800",
        "time_display": "01/21/2023 10:34:40 AM UTC-08:00",
        "unix_timestamp": 1674326080,
        "minutes_to_incident": -352.33,
        "raw_timestamp": "2023-01-21T10:34:40-08:00"
      }
    },
    {
      "type": "Feature",
      "geometry": {
        "type": "Point",
        "coordinates": [
          -118.0749,
          33.9011,
          0.0
        ]
      },
      "properties": {
        "sequence": 34,
        "name": "1/21/2023 10:35:28 AM(UTC-8)",
        "time_utc": "2023-01-21T18:35:28Z",
        "time_local": "2023-01-21T10:35:28-0800",
        "time_display": "01/21/2023 10:35:28 AM UTC-08:00",
        "unix_timestamp": 1674326128,
        "minutes_to_incident": -351.53,
        "raw_timestamp": "2023-01-21T10:35:28-08:00"
      }
    },
    {
      "type": "Feature",
      "geometry": {
        "type": "Point",
        "coordinates": [
          -118.0730638,
          33.9020885,
          0.0
        ]
      },
      "properties": {
        "sequence": 35,
        "name": "1/21/2023 10:35:51 AM(UTC-8)",
        "time_utc": "2023-01-21T18:35:51Z",
        "time_local": "2023-01-21T10:35:51-0800",
        "time_display": "01/21/2023 10:35:51 AM UTC-08:00",
        "unix_timestamp": 1674326151,
        "minutes_to_incident": -351.14,
        "raw_timestamp": "2023-01-21T10:35:51.837-08:00"
      }
    },
    {
      "type": "Feature",
      "geometry": {
        "type": "Point",
        "coordinates": [
          -118.0772,
          33.90625,
          0.0
        ]
      },
      "properties": {
        "sequence": 36,
        "name": "1/21/2023 10:37:04 AM(UTC-8)",
        "time_utc": "2023-01-21T18:37:04Z",
        "time_local": "2023-01-21T10:37:04-0800",
        "time_display": "01/21/2023 10:37:04 AM UTC-08:00",
        "unix_timestamp": 1674326224,
        "minutes_to_incident": -349.93,
        "raw_timestamp": "2023-01-21T10:37:04-08:00"
      }
    },
    {
      "type": "Feature",
      "geometry": {
        "type": "Point",
        "coordinates": [
          -118.0767,
          33.9116,
          0.0
        ]
      },
      "properties": {
        "sequence": 37,
        "name": "1/21/2023 10:37:52 AM(UTC-8)",
        "time_utc": "2023-01-21T18:37:52Z",
        "time_local": "2023-01-21T10:37:52-0800",
        "time_display": "01/21/2023 10:37:52 AM UTC-08:00",
        "unix_timestamp": 1674326272,
        "minutes_to_incident": -349.13,
        "raw_timestamp": "2023-01-21T10:37:52-08:00"
      }
    },
    {
      "type": "Feature",
      "geometry": {
        "type": "Point",
        "coordinates": [
          -118.0713,
          33.91485,
          0.0
        ]
      },
      "properties": {
        "sequence": 38,
        "name": "1/21/2023 10:41:52 AM(UTC-8)",
        "time_utc": "2023-01-21T18:41:52Z",
        "time_local": "2023-01-21T10:41:52-0800",
        "time_display": "01/21/2023 10:41:52 AM UTC-08:00",
        "unix_timestamp": 1674326512,
        "minutes_to_incident": -345.13,
        "raw_timestamp": "2023-01-21T10:41:52-08:00"
      }
    },
    {
      "type": "Feature",
      "geometry": {
        "type": "Point",
        "coordinates": [
          -118.0768,
          33.91605,
          0.0
        ]
      },
      "properties": {
        "sequence": 39,
        "name": "1/21/2023 10:44:00 AM(UTC-8)",
        "time_utc": "2023-01-21T18:44:00Z",
        "time_local": "2023-01-21T10:44:00-0800",
        "time_display": "01/21/2023 10:44:00 AM UTC-08:00",
        "unix_timestamp": 1674326640,
        "minutes_to_incident": -343.0,
        "raw_timestamp": "2023-01-21T10:44:00-08:00"
      }
    },
    {
      "type": "Feature",
      "geometry": {
        "type": "Point",
        "coordinates": [
          -118.0707861,
          33.9117094,
          0.0
        ]
      },
      "properties": {
        "sequence": 40,
        "name": "1/21/2023 10:46:03 AM(UTC-8)",
        "time_utc": "2023-01-21T18:46:03Z",
        "time_local": "2023-01-21T10:46:03-0800",
        "time_display": "01/21/2023 10:46:03 AM UTC-08:00",
        "unix_timestamp": 1674326763,
        "minutes_to_incident": -340.95,
        "raw_timestamp": "2023-01-21T10:46:03.204-08:00"
      }
    },
    {
      "type": "Feature",
      "geometry": {
        "type": "Point",
        "coordinates": [
          -118.0707864,
          33.9117144,
          0.0
        ]
      },
      "properties": {
        "sequence": 41,
        "name": "1/21/2023 10:46:38 AM(UTC-8)",
        "time_utc": "2023-01-21T18:46:38Z",
        "time_local": "2023-01-21T10:46:38-0800",
        "time_display": "01/21/2023 10:46:38 AM UTC-08:00",
        "unix_timestamp": 1674326798,
        "minutes_to_incident": -340.35,
        "raw_timestamp": "2023-01-21T10:46:38.977-08:00"
      }
    },
    {
      "type": "Feature",
      "geometry": {
        "type": "Point",
        "coordinates": [
          -118.0707817,
          33.9117215,
          0.0
        ]
      },
      "properties": {
        "sequence": 42,
        "name": "1/21/2023 11:17:37 AM(UTC-8)",
        "time_utc": "2023-01-21T19:17:37Z",
        "time_local": "2023-01-21T11:17:37-0800",
        "time_display": "01/21/2023 11:17:37 AM UTC-08:00",
        "unix_timestamp": 1674328657,
        "minutes_to_incident": -309.38,
        "raw_timestamp": "2023-01-21T11:17:37.093-08:00"
      }
    },
    {
      "type": "Feature",
      "geometry": {
        "type": "Point",
        "coordinates": [
          -118.0707755,
          33.9117163,
          0.0
        ]
      },
      "properties": {
        "sequence": 43,
        "name": "1/21/2023 11:18:11 AM(UTC-8)",
        "time_utc": "2023-01-21T19:18:11Z",
        "time_local": "2023-01-21T11:18:11-0800",
        "time_display": "01/21/2023 11:18:11 AM UTC-08:00",
        "unix_timestamp": 1674328691,
        "minutes_to_incident": -308.81,
        "raw_timestamp": "2023-01-21T11:18:11.234-08:00"
      }
    },
    {
      "type": "Feature",
      "geometry": {
        "type": "Point",
        "coordinates": [
          -118.07305,
          33.9109,
          0.0
        ]
      },
      "properties": {
        "sequence": 44,
        "name": "1/21/2023 11:20:16 AM(UTC-8)",
        "time_utc": "2023-01-21T19:20:16Z",
        "time_local": "2023-01-21T11:20:16-0800",
        "time_display": "01/21/2023 11:20:16 AM UTC-08:00",
        "unix_timestamp": 1674328816,
        "minutes_to_incident": -306.73,
        "raw_timestamp": "2023-01-21T11:20:16-08:00"
      }
    },
    {
      "type": "Feature",
      "geometry": {
        "type": "Point",
        "coordinates": [
          -118.07165,
          33.9159,
          0.0
        ]
      },
      "properties": {
        "sequence": 45,
        "name": "1/21/2023 11:21:52 AM(UTC-8)",
        "time_utc": "2023-01-21T19:21:52Z",
        "time_local": "2023-01-21T11:21:52-0800",
        "time_display": "01/21/2023 11:21:52 AM UTC-08:00",
        "unix_timestamp": 1674328912,
        "minutes_to_incident": -305.13,
        "raw_timestamp": "2023-01-21T11:21:52-08:00"
      }
    },
    {
      "type": "Feature",
      "geometry": {
        "type": "Point",
        "coordinates": [
          -118.0707655,
          33.9117617,
          0.0
        ]
      },
      "properties": {
        "sequence": 46,
        "name": "1/21/2023 11:24:47 AM(UTC-8)",
        "time_utc": "2023-01-21T19:24:47Z",
        "time_local": "2023-01-21T11:24:47-0800",
        "time_display": "01/21/2023 11:24:47 AM UTC-08:00",
        "unix_timestamp": 1674329087,
        "minutes_to_incident": -302.2,
        "raw_timestamp": "2023-01-21T11:24:47.742-08:00"
      }
    },
    {
      "type": "Feature",
      "geometry": {
        "type": "Point",
        "coordinates": [
          -118.07685,
          33.9145,
          0.0
        ]
      },
      "properties": {
        "sequence": 47,
        "name": "1/21/2023 11:26:08 AM(UTC-8)",
        "time_utc": "2023-01-21T19:26:08Z",
        "time_local": "2023-01-21T11:26:08-0800",
        "time_display": "01/21/2023 11:26:08 AM UTC-08:00",
        "unix_timestamp": 1674329168,
        "minutes_to_incident": -300.87,
        "raw_timestamp": "2023-01-21T11:26:08-08:00"
      }
    },
    {
      "type": "Feature",
      "geometry": {
        "type": "Point",
        "coordinates": [
          -118.0815,
          33.9192,
          0.0
        ]
      },
      "properties": {
        "sequence": 48,
        "name": "1/21/2023 11:29:36 AM(UTC-8)",
        "time_utc": "2023-01-21T19:29:36Z",
        "time_local": "2023-01-21T11:29:36-0800",
        "time_display": "01/21/2023 11:29:36 AM UTC-08:00",
        "unix_timestamp": 1674329376,
        "minutes_to_incident": -297.4,
        "raw_timestamp": "2023-01-21T11:29:36-08:00"
      }
    },
    {
      "type": "Feature",
      "geometry": {
        "type": "Point",
        "coordinates": [
          -118.0852,
          33.9147,
          0.0
        ]
      },
      "properties": {
        "sequence": 49,
        "name": "1/21/2023 11:30:40 AM(UTC-8)",
        "time_utc": "2023-01-21T19:30:40Z",
        "time_local": "2023-01-21T11:30:40-0800",
        "time_display": "01/21/2023 11:30:40 AM UTC-08:00",
        "unix_timestamp": 1674329440,
        "minutes_to_incident": -296.33,
        "raw_timestamp": "2023-01-21T11:30:40-08:00"
      }
    },
    {
      "type": "Feature",
      "geometry": {
        "type": "Point",
        "coordinates": [
          -118.0835014,
          33.9162997,
          0.0
        ]
      },
      "properties": {
        "sequence": 50,
        "name": "1/21/2023 11:30:59 AM(UTC-8)",
        "time_utc": "2023-01-21T19:30:59Z",
        "time_local": "2023-01-21T11:30:59-0800",
        "time_display": "01/21/2023 11:30:59 AM UTC-08:00",
        "unix_timestamp": 1674329459,
        "minutes_to_incident": -296.01,
        "raw_timestamp": "2023-01-21T11:30:59.21-08:00"
      }
    },
    {
      "type": "Feature",
      "geometry": {
        "type": "Point",
        "coordinates": [
          -118.0833743,
          33.9158239,
          0.0
        ]
      },
      "properties": {
        "sequence": 51,
        "name": "1/21/2023 11:31:31 AM(UTC-8)",
        "time_utc": "2023-01-21T19:31:31Z",
        "time_local": "2023-01-21T11:31:31-0800",
        "time_display": "01/21/2023 11:31:31 AM UTC-08:00",
        "unix_timestamp": 1674329491,
        "minutes_to_incident": -295.47,
        "raw_timestamp": "2023-01-21T11:31:31.967-08:00"
      }
    },
    {
      "type": "Feature",
      "geometry": {
        "type": "Point",
        "coordinates": [
          -118.0791,
          33.91635,
          0.0
        ]
      },
      "properties": {
        "sequence": 52,
        "name": "1/21/2023 11:31:44 AM(UTC-8)",
        "time_utc": "2023-01-21T19:31:44Z",
        "time_local": "2023-01-21T11:31:44-0800",
        "time_display": "01/21/2023 11:31:44 AM UTC-08:00",
        "unix_timestamp": 1674329504,
        "minutes_to_incident": -295.27,
        "raw_timestamp": "2023-01-21T11:31:44-08:00"
      }
    },
    {
      "type": "Feature",
      "geometry": {
        "type": "Point",
        "coordinates": [
          -118.0834044,
          33.9158452,
          0.0
        ]
      },
      "properties": {
        "sequence": 53,
        "name": "1/21/2023 11:32:33 AM(UTC-8)",
        "time_utc": "2023-01-21T19:32:33Z",
        "time_local": "2023-01-21T11:32:33-0800",
        "time_display": "01/21/2023 11:32:33 AM UTC-08:00",
        "unix_timestamp": 1674329553,
        "minutes_to_incident": -294.44,
        "raw_timestamp": "2023-01-21T11:32:33.66-08:00"
      }
    },
    {
      "type": "Feature",
      "geometry": {
        "type": "Point",
        "coordinates": [
          -118.083576,
          33.9158635,
          0.0
        ]
      },
      "properties": {
        "sequence": 54,
        "name": "1/21/2023 11:33:47 AM(UTC-8)",
        "time_utc": "2023-01-21T19:33:47Z",
        "time_local": "2023-01-21T11:33:47-0800",
        "time_display": "01/21/2023 11:33:47 AM UTC-08:00",
        "unix_timestamp": 1674329627,
        "minutes_to_incident": -293.22,
        "raw_timestamp": "2023-01-21T11:33:47.044-08:00"
      }
    },
    {
      "type": "Feature",
      "geometry": {
        "type": "Point",
        "coordinates": [
          -118.0839779,
          33.9159589,
          0.0
        ]
      },
      "properties": {
        "sequence": 55,
        "name": "1/21/2023 11:42:10 AM(UTC-8)",
        "time_utc": "2023-01-21T19:42:10Z",
        "time_local": "2023-01-21T11:42:10-0800",
        "time_display": "01/21/2023 11:42:10 AM UTC-08:00",
        "unix_timestamp": 1674330130,
        "minutes_to_incident": -284.82,
        "raw_timestamp": "2023-01-21T11:42:10.792-08:00"
      }
    },
    {
      "type": "Feature",
      "geometry": {
        "type": "Point",
        "coordinates": [
          -118.0835376,
          33.9162679,
          0.0
        ]
      },
      "properties": {
        "sequence": 56,
        "name": "1/21/2023 11:47:24 AM(UTC-8)",
        "time_utc": "2023-01-21T19:47:24Z",
        "time_local": "2023-01-21T11:47:24-0800",
        "time_display": "01/21/2023 11:47:24 AM UTC-08:00",
        "unix_timestamp": 1674330444,
        "minutes_to_incident": -279.59,
        "raw_timestamp": "2023-01-21T11:47:24.703-08:00"
      }
    },
    {
      "type": "Feature",
      "geometry": {
        "type": "Point",
        "coordinates": [
          -118.0835335,
          33.9162839,
          0.0
        ]
      },
      "properties": {
        "sequence": 57,
        "name": "1/21/2023 11:48:07 AM(UTC-8)",
        "time_utc": "2023-01-21T19:48:07Z",
        "time_local": "2023-01-21T11:48:07-0800",
        "time_display": "01/21/2023 11:48:07 AM UTC-08:00",
        "unix_timestamp": 1674330487,
        "minutes_to_incident": -278.87,
        "raw_timestamp": "2023-01-21T11:48:07.685-08:00"
      }
    },
    {
      "type": "Feature",
      "geometry": {
        "type": "Point",
        "coordinates": [
          -118.0834858,
          33.9161755,
          0.0
        ]
      },
      "properties": {
        "sequence": 58,
        "name": "1/21/2023 11:54:49 AM(UTC-8)",
        "time_utc": "2023-01-21T19:54:49Z",
        "time_local": "2023-01-21T11:54:49-0800",
        "time_display": "01/21/2023 11:54:49 AM UTC-08:00",
        "unix_timestamp": 1674330889,
        "minutes_to_incident": -272.18,
        "raw_timestamp": "2023-01-21T11:54:49.326-08:00"
      }
    },
    {
      "type": "Feature",
      "geometry": {
        "type": "Point",
        "coordinates": [
          -118.0837707,
          33.9163902,
          0.0
        ]
      },
      "properties": {
        "sequence": 59,
        "name": "1/21/2023 12:15:50 PM(UTC-8)",
        "time_utc": "2023-01-21T20:15:50Z",
        "time_local": "2023-01-21T12:15:50-0800",
        "time_display": "01/21/2023 12:15:50 PM UTC-08:00",
        "unix_timestamp": 1674332150,
        "minutes_to_incident": -251.16,
        "raw_timestamp": "2023-01-21T12:15:50.403-08:00"
      }
    },
    {
      "type": "Feature",
      "geometry": {
        "type": "Point",
        "coordinates": [
          -118.08435,
          33.91545,
          0.0
        ]
      },
      "properties": {
        "sequence": 60,
        "name": "1/21/2023 12:17:04 PM(UTC-8)",
        "time_utc": "2023-01-21T20:17:04Z",
        "time_local": "2023-01-21T12:17:04-0800",
        "time_display": "01/21/2023 12:17:04 PM UTC-08:00",
        "unix_timestamp": 1674332224,
        "minutes_to_incident": -249.93,
        "raw_timestamp": "2023-01-21T12:17:04-08:00"
      }
    },
    {
      "type": "Feature",
      "geometry": {
        "type": "Point",
        "coordinates": [
          -118.08367594,
          33.91615221,
          0.0
        ]
      },
      "properties": {
        "sequence": 61,
        "name": "1/21/2023 12:18:29 PM(UTC-8)",
        "time_utc": "2023-01-21T20:18:29Z",
        "time_local": "2023-01-21T12:18:29-0800",
        "time_display": "01/21/2023 12:18:29 PM UTC-08:00",
        "unix_timestamp": 1674332309,
        "minutes_to_incident": -248.5,
        "raw_timestamp": "2023-01-21T12:18:29.702-08:00"
      }
    },
    {
      "type": "Feature",
      "geometry": {
        "type": "Point",
        "coordinates": [
          -118.0789,
          33.91675,
          0.0
        ]
      },
      "properties": {
        "sequence": 62,
        "name": "1/21/2023 12:19:12 PM(UTC-8)",
        "time_utc": "2023-01-21T20:19:12Z",
        "time_local": "2023-01-21T12:19:12-0800",
        "time_display": "01/21/2023 12:19:12 PM UTC-08:00",
        "unix_timestamp": 1674332352,
        "minutes_to_incident": -247.8,
        "raw_timestamp": "2023-01-21T12:19:12-08:00"
      }
    },
    {
      "type": "Feature",
      "geometry": {
        "type": "Point",
        "coordinates": [
          -118.0840376,
          33.9160702,
          0.0
        ]
      },
      "properties": {
        "sequence": 63,
        "name": "1/21/2023 12:19:48 PM(UTC-8)",
        "time_utc": "2023-01-21T20:19:48Z",
        "time_local": "2023-01-21T12:19:48-0800",
        "time_display": "01/21/2023 12:19:48 PM UTC-08:00",
        "unix_timestamp": 1674332388,
        "minutes_to_incident": -247.2,
        "raw_timestamp": "2023-01-21T12:19:48.199-08:00"
      }
    },
    {
      "type": "Feature",
      "geometry": {
        "type": "Point",
        "coordinates": [
          -118.0830096,
          33.9168756,
          0.0
        ]
      },
      "properties": {
        "sequence": 64,
        "name": "1/21/2023 12:27:45 PM(UTC-8)",
        "time_utc": "2023-01-21T20:27:45Z",
        "time_local": "2023-01-21T12:27:45-0800",
        "time_display": "01/21/2023 12:27:45 PM UTC-08:00",
        "unix_timestamp": 1674332865,
        "minutes_to_incident": -239.25,
        "raw_timestamp": "2023-01-21T12:27:45.03-08:00"
      }
    },
    {
      "type": "Feature",
      "geometry": {
        "type": "Point",
        "coordinates": [
          -118.0839997,
          33.9163383,
          0.0
        ]
      },
      "properties": {
        "sequence": 65,
        "name": "1/21/2023 12:29:20 PM(UTC-8)",
        "time_utc": "2023-01-21T20:29:20Z",
        "time_local": "2023-01-21T12:29:20-0800",
        "time_display": "01/21/2023 12:29:20 PM UTC-08:00",
        "unix_timestamp": 1674332960,
        "minutes_to_incident": -237.66,
        "raw_timestamp": "2023-01-21T12:29:20.329-08:00"
      }
    },
    {
      "type": "Feature",
      "geometry": {
        "type": "Point",
        "coordinates": [
          -118.0846,
          33.9152,
          0.0
        ]
      },
      "properties": {
        "sequence": 66,
        "name": "1/21/2023 12:30:24 PM(UTC-8)",
        "time_utc": "2023-01-21T20:30:24Z",
        "time_local": "2023-01-21T12:30:24-0800",
        "time_display": "01/21/2023 12:30:24 PM UTC-08:00",
        "unix_timestamp": 1674333024,
        "minutes_to_incident": -236.6,
        "raw_timestamp": "2023-01-21T12:30:24-08:00"
      }
    },
    {
      "type": "Feature",
      "geometry": {
        "type": "Point",
        "coordinates": [
          -118.0837287,
          33.9163674,
          0.0
        ]
      },
      "properties": {
        "sequence": 67,
        "name": "1/21/2023 12:31:05 PM(UTC-8)",
        "time_utc": "2023-01-21T20:31:05Z",
        "time_local": "2023-01-21T12:31:05-0800",
        "time_display": "01/21/2023 12:31:05 PM UTC-08:00",
        "unix_timestamp": 1674333065,
        "minutes_to_incident": -235.91,
        "raw_timestamp": "2023-01-21T12:31:05.158-08:00"
      }
    },
    {
      "type": "Feature",
      "geometry": {
        "type": "Point",
        "coordinates": [
          -118.0837734,
          33.9163887,
          0.0
        ]
      },
      "properties": {
        "sequence": 68,
        "name": "1/21/2023 12:31:39 PM(UTC-8)",
        "time_utc": "2023-01-21T20:31:39Z",
        "time_local": "2023-01-21T12:31:39-0800",
        "time_display": "01/21/2023 12:31:39 PM UTC-08:00",
        "unix_timestamp": 1674333099,
        "minutes_to_incident": -235.35,
        "raw_timestamp": "2023-01-21T12:31:39.264-08:00"
      }
    },
    {
      "type": "Feature",
      "geometry": {
        "type": "Point",
        "coordinates": [
          -118.0837767,
          33.9163955,
          0.0
        ]
      },
      "properties": {
        "sequence": 69,
        "name": "1/21/2023 12:33:09 PM(UTC-8)",
        "time_utc": "2023-01-21T20:33:09Z",
        "time_local": "2023-01-21T12:33:09-0800",
        "time_display": "01/21/2023 12:33:09 PM UTC-08:00",
        "unix_timestamp": 1674333189,
        "minutes_to_incident": -233.84,
        "raw_timestamp": "2023-01-21T12:33:09.596-08:00"
      }
    },
    {
      "type": "Feature",
      "geometry": {
        "type": "Point",
        "coordinates": [
          -118.0837786,
          33.9163975,
          0.0
        ]
      },
      "properties": {
        "sequence": 70,
        "name": "1/21/2023 12:42:19 PM(UTC-8)",
        "time_utc": "2023-01-21T20:42:19Z",
        "time_local": "2023-01-21T12:42:19-0800",
        "time_display": "01/21/2023 12:42:19 PM UTC-08:00",
        "unix_timestamp": 1674333739,
        "minutes_to_incident": -224.67,
        "raw_timestamp": "2023-01-21T12:42:19.757-08:00"
      }
    },
    {
      "type": "Feature",
      "geometry": {
        "type": "Point",
        "coordinates": [
          -118.0837786,
          33.9163975,
          0.0
        ]
      },
      "properties": {
        "sequence": 71,
        "name": "1/21/2023 12:42:20 PM(UTC-8)",
        "time_utc": "2023-01-21T20:42:20Z",
        "time_local": "2023-01-21T12:42:20-0800",
        "time_display": "01/21/2023 12:42:20 PM UTC-08:00",
        "unix_timestamp": 1674333740,
        "minutes_to_incident": -224.65,
        "raw_timestamp": "2023-01-21T12:42:20.731-08:00"
      }
    },
    {
      "type": "Feature",
      "geometry": {
        "type": "Point",
        "coordinates": [
          -118.0837611,
          33.9164044,
          0.0
        ]
      },
      "properties": {
        "sequence": 72,
        "name": "1/21/2023 12:50:35 PM(UTC-8)",
        "time_utc": "2023-01-21T20:50:35Z",
        "time_local": "2023-01-21T12:50:35-0800",
        "time_display": "01/21/2023 12:50:35 PM UTC-08:00",
        "unix_timestamp": 1674334235,
        "minutes_to_incident": -216.4,
        "raw_timestamp": "2023-01-21T12:50:35.707-08:00"
      }
    },
    {
      "type": "Feature",
      "geometry": {
        "type": "Point",
        "coordinates": [
          -118.0837809,
          33.9163961,
          0.0
        ]
      },
      "properties": {
        "sequence": 73,
        "name": "1/21/2023 12:51:09 PM(UTC-8)",
        "time_utc": "2023-01-21T20:51:09Z",
        "time_local": "2023-01-21T12:51:09-0800",
        "time_display": "01/21/2023 12:51:09 PM UTC-08:00",
        "unix_timestamp": 1674334269,
        "minutes_to_incident": -215.84,
        "raw_timestamp": "2023-01-21T12:51:09.764-08:00"
      }
    },
    {
      "type": "Feature",
      "geometry": {
        "type": "Point",
        "coordinates": [
          -118.0837734,
          33.9164026,
          0.0
        ]
      },
      "properties": {
        "sequence": 74,
        "name": "1/21/2023 12:54:16 PM(UTC-8)",
        "time_utc": "2023-01-21T20:54:16Z",
        "time_local": "2023-01-21T12:54:16-0800",
        "time_display": "01/21/2023 12:54:16 PM UTC-08:00",
        "unix_timestamp": 1674334456,
        "minutes_to_incident": -212.73,
        "raw_timestamp": "2023-01-21T12:54:16.224-08:00"
      }
    },
    {
      "type": "Feature",
      "geometry": {
        "type": "Point",
        "coordinates": [
          -118.0829862,
          33.9168118,
          0.0
        ]
      },
      "properties": {
        "sequence": 75,
        "name": "1/21/2023 1:02:01 PM(UTC-8)",
        "time_utc": "2023-01-21T21:02:01Z",
        "time_local": "2023-01-21T13:02:01-0800",
        "time_display": "01/21/2023 01:02:01 PM UTC-08:00",
        "unix_timestamp": 1674334921,
        "minutes_to_incident": -204.98,
        "raw_timestamp": "2023-01-21T13:02:01.125-08:00"
      }
    },
    {
      "type": "Feature",
      "geometry": {
        "type": "Point",
        "coordinates": [
          -118.0829759,
          33.9168387,
          0.0
        ]
      },
      "properties": {
        "sequence": 76,
        "name": "1/21/2023 1:03:42 PM(UTC-8)",
        "time_utc": "2023-01-21T21:03:42Z",
        "time_local": "2023-01-21T13:03:42-0800",
        "time_display": "01/21/2023 01:03:42 PM UTC-08:00",
        "unix_timestamp": 1674335022,
        "minutes_to_incident": -203.3,
        "raw_timestamp": "2023-01-21T13:03:42.058-08:00"
      }
    },
    {
      "type": "Feature",
      "geometry": {
        "type": "Point",
        "coordinates": [
          -118.08372626,
          33.91647395,
          0.0
        ]
      },
      "properties": {
        "sequence": 77,
        "name": "1/21/2023 1:09:10 PM(UTC-8)",
        "time_utc": "2023-01-21T21:09:10Z",
        "time_local": "2023-01-21T13:09:10-0800",
        "time_display": "01/21/2023 01:09:10 PM UTC-08:00",
        "unix_timestamp": 1674335350,
        "minutes_to_incident": -197.83,
        "raw_timestamp": "2023-01-21T13:09:10.338-08:00"
      }
    },
    {
      "type": "Feature",
      "geometry": {
        "type": "Point",
        "coordinates": [
          -118.083628,
          33.9166847,
          0.0
        ]
      },
      "properties": {
        "sequence": 78,
        "name": "1/21/2023 1:09:44 PM(UTC-8)",
        "time_utc": "2023-01-21T21:09:44Z",
        "time_local": "2023-01-21T13:09:44-0800",
        "time_display": "01/21/2023 01:09:44 PM UTC-08:00",
        "unix_timestamp": 1674335384,
        "minutes_to_incident": -197.26,
        "raw_timestamp": "2023-01-21T13:09:44.558-08:00"
      }
    },
    {
      "type": "Feature",
      "geometry": {
        "type": "Point",
        "coordinates": [
          -118.0836142,
          33.9166578,
          0.0
        ]
      },
      "properties": {
        "sequence": 79,
        "name": "1/21/2023 1:10:16 PM(UTC-8)",
        "time_utc": "2023-01-21T21:10:16Z",
        "time_local": "2023-01-21T13:10:16-0800",
        "time_display": "01/21/2023 01:10:16 PM UTC-08:00",
        "unix_timestamp": 1674335416,
        "minutes_to_incident": -196.72,
        "raw_timestamp": "2023-01-21T13:10:16.56-08:00"
      }
    },
    {
      "type": "Feature",
      "geometry": {
        "type": "Point",
        "coordinates": [
          -118.0834484,
          33.915913,
          0.0
        ]
      },
      "properties": {
        "sequence": 80,
        "name": "1/21/2023 1:13:14 PM(UTC-8)",
        "time_utc": "2023-01-21T21:13:14Z",
        "time_local": "2023-01-21T13:13:14-0800",
        "time_display": "01/21/2023 01:13:14 PM UTC-08:00",
        "unix_timestamp": 1674335594,
        "minutes_to_incident": -193.76,
        "raw_timestamp": "2023-01-21T13:13:14.592-08:00"
      }
    },
    {
      "type": "Feature",
      "geometry": {
        "type": "Point",
        "coordinates": [
          -118.0832033,
          33.915859,
          0.0
        ]
      },
      "properties": {
        "sequence": 81,
        "name": "1/21/2023 1:17:45 PM(UTC-8)",
        "time_utc": "2023-01-21T21:17:45Z",
        "time_local": "2023-01-21T13:17:45-0800",
        "time_display": "01/21/2023 01:17:45 PM UTC-08:00",
        "unix_timestamp": 1674335865,
        "minutes_to_incident": -189.24,
        "raw_timestamp": "2023-01-21T13:17:45.517-08:00"
      }
    },
    {
      "type": "Feature",
      "geometry": {
        "type": "Point",
        "coordinates": [
          -118.07885,
          33.91735,
          0.0
        ]
      },
      "properties": {
        "sequence": 82,
        "name": "1/21/2023 1:21:04 PM(UTC-8)",
        "time_utc": "2023-01-21T21:21:04Z",
        "time_local": "2023-01-21T13:21:04-0800",
        "time_display": "01/21/2023 01:21:04 PM UTC-08:00",
        "unix_timestamp": 1674336064,
        "minutes_to_incident": -185.93,
        "raw_timestamp": "2023-01-21T13:21:04-08:00"
      }
    },
    {
      "type": "Feature",
      "geometry": {
        "type": "Point",
        "coordinates": [
          -118.0736,
          33.9145,
          0.0
        ]
      },
      "properties": {
        "sequence": 83,
        "name": "1/21/2023 1:22:56 PM(UTC-8)",
        "time_utc": "2023-01-21T21:22:56Z",
        "time_local": "2023-01-21T13:22:56-0800",
        "time_display": "01/21/2023 01:22:56 PM UTC-08:00",
        "unix_timestamp": 1674336176,
        "minutes_to_incident": -184.07,
        "raw_timestamp": "2023-01-21T13:22:56-08:00"
      }
    },
    {
      "type": "Feature",
      "geometry": {
        "type": "Point",
        "coordinates": [
          -118.0709485,
          33.9117127,
          0.0
        ]
      },
      "properties": {
        "sequence": 84,
        "name": "1/21/2023 1:25:07 PM(UTC-8)",
        "time_utc": "2023-01-21T21:25:07Z",
        "time_local": "2023-01-21T13:25:07-0800",
        "time_display": "01/21/2023 01:25:07 PM UTC-08:00",
        "unix_timestamp": 1674336307,
        "minutes_to_incident": -181.87,
        "raw_timestamp": "2023-01-21T13:25:07.754-08:00"
      }
    },
    {
      "type": "Feature",
      "geometry": {
        "type": "Point",
        "coordinates": [
          -118.070831,
          33.9115643,
          0.0
        ]
      },
      "properties": {
        "sequence": 85,
        "name": "1/21/2023 1:26:28 PM(UTC-8)",
        "time_utc": "2023-01-21T21:26:28Z",
        "time_local": "2023-01-21T13:26:28-0800",
        "time_display": "01/21/2023 01:26:28 PM UTC-08:00",
        "unix_timestamp": 1674336388,
        "minutes_to_incident": -180.53,
        "raw_timestamp": "2023-01-21T13:26:28.201-08:00"
      }
    },
    {
      "type": "Feature",
      "geometry": {
        "type": "Point",
        "coordinates": [
          -118.0707861,
          33.911725,
          0.0
        ]
      },
      "properties": {
        "sequence": 86,
        "name": "1/21/2023 1:43:03 PM(UTC-8)",
        "time_utc": "2023-01-21T21:43:03Z",
        "time_local": "2023-01-21T13:43:03-0800",
        "time_display": "01/21/2023 01:43:03 PM UTC-08:00",
        "unix_timestamp": 1674337383,
        "minutes_to_incident": -163.94,
        "raw_timestamp": "2023-01-21T13:43:03.767-08:00"
      }
    },
    {
      "type": "Feature",
      "geometry": {
        "type": "Point",
        "coordinates": [
          -118.0764,
          33.90835,
          0.0
        ]
      },
      "properties": {
        "sequence": 87,
        "name": "1/21/2023 2:05:36 PM(UTC-8)",
        "time_utc": "2023-01-21T22:05:36Z",
        "time_local": "2023-01-21T14:05:36-0800",
        "time_display": "01/21/2023 02:05:36 PM UTC-08:00",
        "unix_timestamp": 1674338736,
        "minutes_to_incident": -141.4,
        "raw_timestamp": "2023-01-21T14:05:36-08:00"
      }
    },
    {
      "type": "Feature",
      "geometry": {
        "type": "Point",
        "coordinates": [
          -118.07945,
          33.9038,
          0.0
        ]
      },
      "properties": {
        "sequence": 88,
        "name": "1/21/2023 2:06:08 PM(UTC-8)",
        "time_utc": "2023-01-21T22:06:08Z",
        "time_local": "2023-01-21T14:06:08-0800",
        "time_display": "01/21/2023 02:06:08 PM UTC-08:00",
        "unix_timestamp": 1674338768,
        "minutes_to_incident": -140.87,
        "raw_timestamp": "2023-01-21T14:06:08-08:00"
      }
    },
    {
      "type": "Feature",
      "geometry": {
        "type": "Point",
        "coordinates": [
          -118.0814991,
          33.9027005,
          0.0
        ]
      },
      "properties": {
        "sequence": 89,
        "name": "1/21/2023 2:06:18 PM(UTC-8)",
        "time_utc": "2023-01-21T22:06:18Z",
        "time_local": "2023-01-21T14:06:18-0800",
        "time_display": "01/21/2023 02:06:18 PM UTC-08:00",
        "unix_timestamp": 1674338778,
        "minutes_to_incident": -140.69,
        "raw_timestamp": "2023-01-21T14:06:18.529-08:00"
      }
    },
    {
      "type": "Feature",
      "geometry": {
        "type": "Point",
        "coordinates": [
          -118.08465,
          33.89985,
          0.0
        ]
      },
      "properties": {
        "sequence": 90,
        "name": "1/21/2023 2:08:16 PM(UTC-8)",
        "time_utc": "2023-01-21T22:08:16Z",
        "time_local": "2023-01-21T14:08:16-0800",
        "time_display": "01/21/2023 02:08:16 PM UTC-08:00",
        "unix_timestamp": 1674338896,
        "minutes_to_incident": -138.73,
        "raw_timestamp": "2023-01-21T14:08:16-08:00"
      }
    },
    {
      "type": "Feature",
      "geometry": {
        "type": "Point",
        "coordinates": [
          -118.0836,
          33.89445,
          0.0
        ]
      },
      "properties": {
        "sequence": 91,
        "name": "1/21/2023 2:09:36 PM(UTC-8)",
        "time_utc": "2023-01-21T22:09:36Z",
        "time_local": "2023-01-21T14:09:36-0800",
        "time_display": "01/21/2023 02:09:36 PM UTC-08:00",
        "unix_timestamp": 1674338976,
        "minutes_to_incident": -137.4,
        "raw_timestamp": "2023-01-21T14:09:36-08:00"
      }
    },
    {
      "type": "Feature",
      "geometry": {
        "type": "Point",
        "coordinates": [
          -118.0811,
          33.88985,
          0.0
        ]
      },
      "properties": {
        "sequence": 92,
        "name": "1/21/2023 2:09:52 PM(UTC-8)",
        "time_utc": "2023-01-21T22:09:52Z",
        "time_local": "2023-01-21T14:09:52-0800",
        "time_display": "01/21/2023 02:09:52 PM UTC-08:00",
        "unix_timestamp": 1674338992,
        "minutes_to_incident": -137.13,
        "raw_timestamp": "2023-01-21T14:09:52-08:00"
      }
    },
    {
      "type": "Feature",
      "geometry": {
        "type": "Point",
        "coordinates": [
          -118.0813108,
          33.8879001,
          0.0
        ]
      },
      "properties": {
        "sequence": 93,
        "name": "1/21/2023 2:12:19 PM(UTC-8)",
        "time_utc": "2023-01-21T22:12:19Z",
        "time_local": "2023-01-21T14:12:19-0800",
        "time_display": "01/21/2023 02:12:19 PM UTC-08:00",
        "unix_timestamp": 1674339139,
        "minutes_to_incident": -134.67,
        "raw_timestamp": "2023-01-21T14:12:19.694-08:00"
      }
    },
    {
      "type": "Feature",
      "geometry": {
        "type": "Point",
        "coordinates": [
          -118.0813127,
          33.8878879,
          0.0
        ]
      },
      "properties": {
        "sequence": 94,
        "name": "1/21/2023 2:15:34 PM(UTC-8)",
        "time_utc": "2023-01-21T22:15:34Z",
        "time_local": "2023-01-21T14:15:34-0800",
        "time_display": "01/21/2023 02:15:34 PM UTC-08:00",
        "unix_timestamp": 1674339334,
        "minutes_to_incident": -131.43,
        "raw_timestamp": "2023-01-21T14:15:34.127-08:00"
      }
    },
    {
      "type": "Feature",
      "geometry": {
        "type": "Point",
        "coordinates": [
          -118.0815529,
          33.8873756,
          0.0
        ]
      },
      "properties": {
        "sequence": 95,
        "name": "1/21/2023 2:20:22 PM(UTC-8)",
        "time_utc": "2023-01-21T22:20:22Z",
        "time_local": "2023-01-21T14:20:22-0800",
        "time_display": "01/21/2023 02:20:22 PM UTC-08:00",
        "unix_timestamp": 1674339622,
        "minutes_to_incident": -126.63,
        "raw_timestamp": "2023-01-21T14:20:22.256-08:00"
      }
    },
    {
      "type": "Feature",
      "geometry": {
        "type": "Point",
        "coordinates": [
          -118.0793,
          33.8945,
          0.0
        ]
      },
      "properties": {
        "sequence": 96,
        "name": "1/21/2023 2:22:24 PM(UTC-8)",
        "time_utc": "2023-01-21T22:22:24Z",
        "time_local": "2023-01-21T14:22:24-0800",
        "time_display": "01/21/2023 02:22:24 PM UTC-08:00",
        "unix_timestamp": 1674339744,
        "minutes_to_incident": -124.6,
        "raw_timestamp": "2023-01-21T14:22:24-08:00"
      }
    },
    {
      "type": "Feature",
      "geometry": {
        "type": "Point",
        "coordinates": [
          -118.0805311,
          33.8940906,
          0.0
        ]
      },
      "properties": {
        "sequence": 97,
        "name": "1/21/2023 2:24:18 PM(UTC-8)",
        "time_utc": "2023-01-21T22:24:18Z",
        "time_local": "2023-01-21T14:24:18-0800",
        "time_display": "01/21/2023 02:24:18 PM UTC-08:00",
        "unix_timestamp": 1674339858,
        "minutes_to_incident": -122.7,
        "raw_timestamp": "2023-01-21T14:24:18.194-08:00"
      }
    },
    {
      "type": "Feature",
      "geometry": {
        "type": "Point",
        "coordinates": [
          -118.0802989,
          33.8946651,
          0.0
        ]
      },
      "properties": {
        "sequence": 98,
        "name": "1/21/2023 2:32:44 PM(UTC-8)",
        "time_utc": "2023-01-21T22:32:44Z",
        "time_local": "2023-01-21T14:32:44-0800",
        "time_display": "01/21/2023 02:32:44 PM UTC-08:00",
        "unix_timestamp": 1674340364,
        "minutes_to_incident": -114.26,
        "raw_timestamp": "2023-01-21T14:32:44.456-08:00"
      }
    },
    {
      "type": "Feature",
      "geometry": {
        "type": "Point",
        "coordinates": [
          -118.0735,
          33.8912,
          0.0
        ]
      },
      "properties": {
        "sequence": 99,
        "name": "1/21/2023 2:35:44 PM(UTC-8)",
        "time_utc": "2023-01-21T22:35:44Z",
        "time_local": "2023-01-21T14:35:44-0800",
        "time_display": "01/21/2023 02:35:44 PM UTC-08:00",
        "unix_timestamp": 1674340544,
        "minutes_to_incident": -111.27,
        "raw_timestamp": "2023-01-21T14:35:44-08:00"
      }
    },
    {
      "type": "Feature",
      "geometry": {
        "type": "Point",
        "coordinates": [
          -118.0700488,
          33.8905387,
          0.0
        ]
      },
      "properties": {
        "sequence": 100,
        "name": "1/21/2023 2:36:12 PM(UTC-8)",
        "time_utc": "2023-01-21T22:36:12Z",
        "time_local": "2023-01-21T14:36:12-0800",
        "time_display": "01/21/2023 02:36:12 PM UTC-08:00",
        "unix_timestamp": 1674340572,
        "minutes_to_incident": -110.79,
        "raw_timestamp": "2023-01-21T14:36:12.365-08:00"
      }
    },
    {
      "type": "Feature",
      "geometry": {
        "type": "Point",
        "coordinates": [
          -118.06705,
          33.8907,
          0.0
        ]
      },
      "properties": {
        "sequence": 101,
        "name": "1/21/2023 2:36:48 PM(UTC-8)",
        "time_utc": "2023-01-21T22:36:48Z",
        "time_local": "2023-01-21T14:36:48-0800",
        "time_display": "01/21/2023 02:36:48 PM UTC-08:00",
        "unix_timestamp": 1674340608,
        "minutes_to_incident": -110.2,
        "raw_timestamp": "2023-01-21T14:36:48-08:00"
      }
    },
    {
      "type": "Feature",
      "geometry": {
        "type": "Point",
        "coordinates": [
          -118.0618,
          33.8904,
          0.0
        ]
      },
      "properties": {
        "sequence": 102,
        "name": "1/21/2023 2:37:20 PM(UTC-8)",
        "time_utc": "2023-01-21T22:37:20Z",
        "time_local": "2023-01-21T14:37:20-0800",
        "time_display": "01/21/2023 02:37:20 PM UTC-08:00",
        "unix_timestamp": 1674340640,
        "minutes_to_incident": -109.67,
        "raw_timestamp": "2023-01-21T14:37:20-08:00"
      }
    },
    {
      "type": "Feature",
      "geometry": {
        "type": "Point",
        "coordinates": [
          -118.0644826,
          33.8884173,
          0.0
        ]
      },
      "properties": {
        "sequence": 103,
        "name": "1/21/2023 2:37:35 PM(UTC-8)",
        "time_utc": "2023-01-21T22:37:35Z",
        "time_local": "2023-01-21T14:37:35-0800",
        "time_display": "01/21/2023 02:37:35 PM UTC-08:00",
        "unix_timestamp": 1674340655,
        "minutes_to_incident": -109.41,
        "raw_timestamp": "2023-01-21T14:37:35.54-08:00"
      }
    },
    {
      "type": "Feature",
      "geometry": {
        "type": "Point",
        "coordinates": [
          -118.0658406,
          33.8881883,
          0.0
        ]
      },
      "properties": {
        "sequence": 104,
        "name": "1/21/2023 2:39:38 PM(UTC-8)",
        "time_utc": "2023-01-21T22:39:38Z",
        "time_local": "2023-01-21T14:39:38-0800",
        "time_display": "01/21/2023 02:39:38 PM UTC-08:00",
        "unix_timestamp": 1674340778,
        "minutes_to_incident": -107.36,
        "raw_timestamp": "2023-01-21T14:39:38.29-08:00"
      }
    },
    {
      "type": "Feature",
      "geometry": {
        "type": "Point",
        "coordinates": [
          -118.06445,
          33.8858,
          0.0
        ]
      },
      "properties": {
        "sequence": 105,
        "name": "1/21/2023 2:41:04 PM(UTC-8)",
        "time_utc": "2023-01-21T22:41:04Z",
        "time_local": "2023-01-21T14:41:04-0800",
        "time_display": "01/21/2023 02:41:04 PM UTC-08:00",
        "unix_timestamp": 1674340864,
        "minutes_to_incident": -105.93,
        "raw_timestamp": "2023-01-21T14:41:04-08:00"
      }
    },
    {
      "type": "Feature",
      "geometry": {
        "type": "Point",
        "coordinates": [
          -118.065691,
          33.8883091,
          0.0
        ]
      },
      "properties": {
        "sequence": 106,
        "name": "1/21/2023 2:41:09 PM(UTC-8)",
        "time_utc": "2023-01-21T22:41:09Z",
        "time_local": "2023-01-21T14:41:09-0800",
        "time_display": "01/21/2023 02:41:09 PM UTC-08:00",
        "unix_timestamp": 1674340869,
        "minutes_to_incident": -105.83,
        "raw_timestamp": "2023-01-21T14:41:09.957-08:00"
      }
    },
    {
      "type": "Feature",
      "geometry": {
        "type": "Point",
        "coordinates": [
          -118.0656343,
          33.8883239,
          0.0
        ]
      },
      "properties": {
        "sequence": 107,
        "name": "1/21/2023 2:43:43 PM(UTC-8)",
        "time_utc": "2023-01-21T22:43:43Z",
        "time_local": "2023-01-21T14:43:43-0800",
        "time_display": "01/21/2023 02:43:43 PM UTC-08:00",
        "unix_timestamp": 1674341023,
        "minutes_to_incident": -103.27,
        "raw_timestamp": "2023-01-21T14:43:43.932-08:00"
      }
    },
    {
      "type": "Feature",
      "geometry": {
        "type": "Point",
        "coordinates": [
          -118.05905,
          33.8877,
          0.0
        ]
      },
      "properties": {
        "sequence": 108,
        "name": "1/21/2023 2:46:24 PM(UTC-8)",
        "time_utc": "2023-01-21T22:46:24Z",
        "time_local": "2023-01-21T14:46:24-0800",
        "time_display": "01/21/2023 02:46:24 PM UTC-08:00",
        "unix_timestamp": 1674341184,
        "minutes_to_incident": -100.6,
        "raw_timestamp": "2023-01-21T14:46:24-08:00"
      }
    },
    {
      "type": "Feature",
      "geometry": {
        "type": "Point",
        "coordinates": [
          -118.0646,
          33.88605,
          0.0
        ]
      },
      "properties": {
        "sequence": 109,
        "name": "1/21/2023 2:54:56 PM(UTC-8)",
        "time_utc": "2023-01-21T22:54:56Z",
        "time_local": "2023-01-21T14:54:56-0800",
        "time_display": "01/21/2023 02:54:56 PM UTC-08:00",
        "unix_timestamp": 1674341696,
        "minutes_to_incident": -92.07,
        "raw_timestamp": "2023-01-21T14:54:56-08:00"
      }
    },
    {
      "type": "Feature",
      "geometry": {
        "type": "Point",
        "coordinates": [
          -118.07085,
          33.8882,
          0.0
        ]
      },
      "properties": {
        "sequence": 110,
        "name": "1/21/2023 2:55:28 PM(UTC-8)",
        "time_utc": "2023-01-21T22:55:28Z",
        "time_local": "2023-01-21T14:55:28-0800",
        "time_display": "01/21/2023 02:55:28 PM UTC-08:00",
        "unix_timestamp": 1674341728,
        "minutes_to_incident": -91.53,
        "raw_timestamp": "2023-01-21T14:55:28-08:00"
      }
    },
    {
      "type": "Feature",
      "geometry": {
        "type": "Point",
        "coordinates": [
          -118.0753701,
          33.8919065,
          0.0
        ]
      },
      "properties": {
        "sequence": 111,
        "name": "1/21/2023 3:01:31 PM(UTC-8)",
        "time_utc": "2023-01-21T23:01:31Z",
        "time_local": "2023-01-21T15:01:31-0800",
        "time_display": "01/21/2023 03:01:31 PM UTC-08:00",
        "unix_timestamp": 1674342091,
        "minutes_to_incident": -85.48,
        "raw_timestamp": "2023-01-21T15:01:31.392-08:00"
      }
    },
    {
      "type": "Feature",
      "geometry": {
        "type": "Point",
        "coordinates": [
          -118.0750104,
          33.8910411,
          0.0
        ]
      },
      "properties": {
        "sequence": 112,
        "name": "1/21/2023 3:04:32 PM(UTC-8)",
        "time_utc": "2023-01-21T23:04:32Z",
        "time_local": "2023-01-21T15:04:32-0800",
        "time_display": "01/21/2023 03:04:32 PM UTC-08:00",
        "unix_timestamp": 1674342272,
        "minutes_to_incident": -82.46,
        "raw_timestamp": "2023-01-21T15:04:32.265-08:00"
      }
    },
    {
      "type": "Feature",
      "geometry": {
        "type": "Point",
        "coordinates": [
          -118.0750349,
          33.8910103,
          0.0
        ]
      },
      "properties": {
        "sequence": 113,
        "name": "1/21/2023 3:07:05 PM(UTC-8)",
        "time_utc": "2023-01-21T23:07:05Z",
        "time_local": "2023-01-21T15:07:05-0800",
        "time_display": "01/21/2023 03:07:05 PM UTC-08:00",
        "unix_timestamp": 1674342425,
        "minutes_to_incident": -79.9,
        "raw_timestamp": "2023-01-21T15:07:05.997-08:00"
      }
    },
    {
      "type": "Feature",
      "geometry": {
        "type": "Point",
        "coordinates": [
          -118.0762,
          33.89225,
          0.0
        ]
      },
      "properties": {
        "sequence": 114,
        "name": "1/21/2023 3:08:16 PM(UTC-8)",
        "time_utc": "2023-01-21T23:08:16Z",
        "time_local": "2023-01-21T15:08:16-0800",
        "time_display": "01/21/2023 03:08:16 PM UTC-08:00",
        "unix_timestamp": 1674342496,
        "minutes_to_incident": -78.73,
        "raw_timestamp": "2023-01-21T15:08:16-08:00"
      }
    },
    {
      "type": "Feature",
      "geometry": {
        "type": "Point",
        "coordinates": [
          -118.0751482,
          33.8911982,
          0.0
        ]
      },
      "properties": {
        "sequence": 115,
        "name": "1/21/2023 3:08:32 PM(UTC-8)",
        "time_utc": "2023-01-21T23:08:32Z",
        "time_local": "2023-01-21T15:08:32-0800",
        "time_display": "01/21/2023 03:08:32 PM UTC-08:00",
        "unix_timestamp": 1674342512,
        "minutes_to_incident": -78.46,
        "raw_timestamp": "2023-01-21T15:08:32.305-08:00"
      }
    },
    {
      "type": "Feature",
      "geometry": {
        "type": "Point",
        "coordinates": [
          -118.07865,
          33.8968,
          0.0
        ]
      },
      "properties": {
        "sequence": 116,
        "name": "1/21/2023 3:10:08 PM(UTC-8)",
        "time_utc": "2023-01-21T23:10:08Z",
        "time_local": "2023-01-21T15:10:08-0800",
        "time_display": "01/21/2023 03:10:08 PM UTC-08:00",
        "unix_timestamp": 1674342608,
        "minutes_to_incident": -76.87,
        "raw_timestamp": "2023-01-21T15:10:08-08:00"
      }
    },
    {
      "type": "Feature",
      "geometry": {
        "type": "Point",
        "coordinates": [
          -118.0749181,
          33.8910101,
          0.0
        ]
      },
      "properties": {
        "sequence": 117,
        "name": "1/21/2023 3:12:37 PM(UTC-8)",
        "time_utc": "2023-01-21T23:12:37Z",
        "time_local": "2023-01-21T15:12:37-0800",
        "time_display": "01/21/2023 03:12:37 PM UTC-08:00",
        "unix_timestamp": 1674342757,
        "minutes_to_incident": -74.38,
        "raw_timestamp": "2023-01-21T15:12:37.236-08:00"
      }
    },
    {
      "type": "Feature",
      "geometry": {
        "type": "Point",
        "coordinates": [
          -118.07525,
          33.8913,
          0.0
        ]
      },
      "properties": {
        "sequence": 118,
        "name": "1/21/2023 3:13:52 PM(UTC-8)",
        "time_utc": "2023-01-21T23:13:52Z",
        "time_local": "2023-01-21T15:13:52-0800",
        "time_display": "01/21/2023 03:13:52 PM UTC-08:00",
        "unix_timestamp": 1674342832,
        "minutes_to_incident": -73.13,
        "raw_timestamp": "2023-01-21T15:13:52-08:00"
      }
    },
    {
      "type": "Feature",
      "geometry": {
        "type": "Point",
        "coordinates": [
          -118.0750271,
          33.8909861,
          0.0
        ]
      },
      "properties": {
        "sequence": 119,
        "name": "1/21/2023 3:16:02 PM(UTC-8)",
        "time_utc": "2023-01-21T23:16:02Z",
        "time_local": "2023-01-21T15:16:02-0800",
        "time_display": "01/21/2023 03:16:02 PM UTC-08:00",
        "unix_timestamp": 1674342962,
        "minutes_to_incident": -70.95,
        "raw_timestamp": "2023-01-21T15:16:02.879-08:00"
      }
    },
    {
      "type": "Feature",
      "geometry": {
        "type": "Point",
        "coordinates": [
          -118.0750585,
          33.8910472,
          0.0
        ]
      },
      "properties": {
        "sequence": 120,
        "name": "1/21/2023 3:19:15 PM(UTC-8)",
        "time_utc": "2023-01-21T23:19:15Z",
        "time_local": "2023-01-21T15:19:15-0800",
        "time_display": "01/21/2023 03:19:15 PM UTC-08:00",
        "unix_timestamp": 1674343155,
        "minutes_to_incident": -67.74,
        "raw_timestamp": "2023-01-21T15:19:15.399-08:00"
      }
    },
    {
      "type": "Feature",
      "geometry": {
        "type": "Point",
        "coordinates": [
          -118.0749808,
          33.8909533,
          0.0
        ]
      },
      "properties": {
        "sequence": 121,
        "name": "1/21/2023 3:24:49 PM(UTC-8)",
        "time_utc": "2023-01-21T23:24:49Z",
        "time_local": "2023-01-21T15:24:49-0800",
        "time_display": "01/21/2023 03:24:49 PM UTC-08:00",
        "unix_timestamp": 1674343489,
        "minutes_to_incident": -62.17,
        "raw_timestamp": "2023-01-21T15:24:49.828-08:00"
      }
    },
    {
      "type": "Feature",
      "geometry": {
        "type": "Point",
        "coordinates": [
          -118.0749753,
          33.8910355,
          0.0
        ]
      },
      "properties": {
        "sequence": 122,
        "name": "1/21/2023 3:29:58 PM(UTC-8)",
        "time_utc": "2023-01-21T23:29:58Z",
        "time_local": "2023-01-21T15:29:58-0800",
        "time_display": "01/21/2023 03:29:58 PM UTC-08:00",
        "unix_timestamp": 1674343798,
        "minutes_to_incident": -57.02,
        "raw_timestamp": "2023-01-21T15:29:58.671-08:00"
      }
    },
    {
      "type": "Feature",
      "geometry": {
        "type": "Point",
        "coordinates": [
          -118.0750186,
          33.89102,
          0.0
        ]
      },
      "properties": {
        "sequence": 123,
        "name": "1/21/2023 3:33:52 PM(UTC-8)",
        "time_utc": "2023-01-21T23:33:52Z",
        "time_local": "2023-01-21T15:33:52-0800",
        "time_display": "01/21/2023 03:33:52 PM UTC-08:00",
        "unix_timestamp": 1674344032,
        "minutes_to_incident": -53.12,
        "raw_timestamp": "2023-01-21T15:33:52.947-08:00"
      }
    },
    {
      "type": "Feature",
      "geometry": {
        "type": "Point",
        "coordinates": [
          -118.0749991,
          33.891043,
          0.0
        ]
      },
      "properties": {
        "sequence": 124,
        "name": "1/21/2023 3:39:38 PM(UTC-8)",
        "time_utc": "2023-01-21T23:39:38Z",
        "time_local": "2023-01-21T15:39:38-0800",
        "time_display": "01/21/2023 03:39:38 PM UTC-08:00",
        "unix_timestamp": 1674344378,
        "minutes_to_incident": -47.36,
        "raw_timestamp": "2023-01-21T15:39:38.477-08:00"
      }
    },
    {
      "type": "Feature",
      "geometry": {
        "type": "Point",
        "coordinates": [
          -118.075055,
          33.8910158,
          0.0
        ]
      },
      "properties": {
        "sequence": 125,
        "name": "1/21/2023 3:48:20 PM(UTC-8)",
        "time_utc": "2023-01-21T23:48:20Z",
        "time_local": "2023-01-21T15:48:20-0800",
        "time_display": "01/21/2023 03:48:20 PM UTC-08:00",
        "unix_timestamp": 1674344900,
        "minutes_to_incident": -38.66,
        "raw_timestamp": "2023-01-21T15:48:20.171-08:00"
      }
    },
    {
      "type": "Feature",
      "geometry": {
        "type": "Point",
        "coordinates": [
          -118.0750814,
          33.8910297,
          0.0
        ]
      },
      "properties": {
        "sequence": 126,
        "name": "1/21/2023 3:50:37 PM(UTC-8)",
        "time_utc": "2023-01-21T23:50:37Z",
        "time_local": "2023-01-21T15:50:37-0800",
        "time_display": "01/21/2023 03:50:37 PM UTC-08:00",
        "unix_timestamp": 1674345037,
        "minutes_to_incident": -36.37,
        "raw_timestamp": "2023-01-21T15:50:37.627-08:00"
      }
    },
    {
      "type": "Feature",
      "geometry": {
        "type": "Point",
        "coordinates": [
          -118.0751476,
          33.8911423,
          0.0
        ]
      },
      "properties": {
        "sequence": 127,
        "name": "1/21/2023 3:53:37 PM(UTC-8)",
        "time_utc": "2023-01-21T23:53:37Z",
        "time_local": "2023-01-21T15:53:37-0800",
        "time_display": "01/21/2023 03:53:37 PM UTC-08:00",
        "unix_timestamp": 1674345217,
        "minutes_to_incident": -33.37,
        "raw_timestamp": "2023-01-21T15:53:37.658-08:00"
      }
    },
    {
      "type": "Feature",
      "geometry": {
        "type": "Point",
        "coordinates": [
          -118.0775,
          33.89615,
          0.0
        ]
      },
      "properties": {
        "sequence": 128,
        "name": "1/21/2023 3:54:40 PM(UTC-8)",
        "time_utc": "2023-01-21T23:54:40Z",
        "time_local": "2023-01-21T15:54:40-0800",
        "time_display": "01/21/2023 03:54:40 PM UTC-08:00",
        "unix_timestamp": 1674345280,
        "minutes_to_incident": -32.33,
        "raw_timestamp": "2023-01-21T15:54:40-08:00"
      }
    },
    {
      "type": "Feature",
      "geometry": {
        "type": "Point",
        "coordinates": [
          -118.0750928,
          33.8910964,
          0.0
        ]
      },
      "properties": {
        "sequence": 129,
        "name": "1/21/2023 3:55:28 PM(UTC-8)",
        "time_utc": "2023-01-21T23:55:28Z",
        "time_local": "2023-01-21T15:55:28-0800",
        "time_display": "01/21/2023 03:55:28 PM UTC-08:00",
        "unix_timestamp": 1674345328,
        "minutes_to_incident": -31.53,
        "raw_timestamp": "2023-01-21T15:55:28.338-08:00"
      }
    },
    {
      "type": "Feature",
      "geometry": {
        "type": "Point",
        "coordinates": [
          -118.077,
          33.891,
          0.0
        ]
      },
      "properties": {
        "sequence": 130,
        "name": "1/21/2023 3:55:44 PM(UTC-8)",
        "time_utc": "2023-01-21T23:55:44Z",
        "time_local": "2023-01-21T15:55:44-0800",
        "time_display": "01/21/2023 03:55:44 PM UTC-08:00",
        "unix_timestamp": 1674345344,
        "minutes_to_incident": -31.27,
        "raw_timestamp": "2023-01-21T15:55:44-08:00"
      }
    },
    {
      "type": "Feature",
      "geometry": {
        "type": "Point",
        "coordinates": [
          -118.0750262,
          33.8910461,
          0.0
        ]
      },
      "properties": {
        "sequence": 131,
        "name": "1/21/2023 4:11:10 PM(UTC-8)",
        "time_utc": "2023-01-22T00:11:10Z",
        "time_local": "2023-01-21T16:11:10-0800",
        "time_display": "01/21/2023 04:11:10 PM UTC-08:00",
        "unix_timestamp": 1674346270,
        "minutes_to_incident": -15.83,
        "raw_timestamp": "2023-01-21T16:11:10.271-08:00"
      }
    },
    {
      "type": "Feature",
      "geometry": {
        "type": "Point",
        "coordinates": [
          -118.077,
          33.8958,
          0.0
        ]
      },
      "properties": {
        "sequence": 132,
        "name": "1/21/2023 4:22:24 PM(UTC-8)",
        "time_utc": "2023-01-22T00:22:24Z",
        "time_local": "2023-01-21T16:22:24-0800",
        "time_display": "01/21/2023 04:22:24 PM UTC-08:00",
        "unix_timestamp": 1674346944,
        "minutes_to_incident": -4.6,
        "raw_timestamp": "2023-01-21T16:22:24-08:00"
      }
    },
    {
      "type": "Feature",
      "geometry": {
        "type": "Point",
        "coordinates": [
          -118.0773,
          33.89105,
          0.0
        ]
      },
      "properties": {
        "sequence": 133,
        "name": "1/21/2023 4:24:48 PM(UTC-8)",
        "time_utc": "2023-01-22T00:24:48Z",
        "time_local": "2023-01-21T16:24:48-0800",
        "time_display": "01/21/2023 04:24:48 PM UTC-08:00",
        "unix_timestamp": 1674347088,
        "minutes_to_incident": -2.2,
        "raw_timestamp": "2023-01-21T16:24:48-08:00"
      }
    },
    {
      "type": "Feature",
      "geometry": {
        "type": "Point",
        "coordinates": [
          -118.0750223,
          33.891108,
          0.0
        ]
      },
      "properties": {
        "sequence": 134,
        "name": "1/21/2023 4:42:11 PM(UTC-8)",
        "time_utc": "2023-01-22T00:42:11Z",
        "time_local": "2023-01-21T16:42:11-0800",
        "time_display": "01/21/2023 04:42:11 PM UTC-08:00",
        "unix_timestamp": 1674348131,
        "minutes_to_incident": 15.2,
        "raw_timestamp": "2023-01-21T16:42:11.769-08:00"
      }
    },
    {
      "type": "Feature",
      "geometry": {
        "type": "Point",
        "coordinates": [
          -118.074981,
          33.8909304,
          0.0
        ]
      },
      "properties": {
        "sequence": 135,
        "name": "1/21/2023 4:42:45 PM(UTC-8)",
        "time_utc": "2023-01-22T00:42:45Z",
        "time_local": "2023-01-21T16:42:45-0800",
        "time_display": "01/21/2023 04:42:45 PM UTC-08:00",
        "unix_timestamp": 1674348165,
        "minutes_to_incident": 15.76,
        "raw_timestamp": "2023-01-21T16:42:45.857-08:00"
      }
    },
    {
      "type": "Feature",
      "geometry": {
        "type": "Point",
        "coordinates": [
          -118.0736645,
          33.880994,
          0.0
        ]
      },
      "properties": {
        "sequence": 136,
        "name": "1/21/2023 5:12:47 PM(UTC-8)",
        "time_utc": "2023-01-22T01:12:47Z",
        "time_local": "2023-01-21T17:12:47-0800",
        "time_display": "01/21/2023 05:12:47 PM UTC-08:00",
        "unix_timestamp": 1674349967,
        "minutes_to_incident": 45.8,
        "raw_timestamp": "2023-01-21T17:12:47.873-08:00"
      }
    },
    {
      "type": "Feature",
      "geometry": {
        "type": "Point",
        "coordinates": [
          -118.0735906,
          33.8808766,
          0.0
        ]
      },
      "properties": {
        "sequence": 137,
        "name": "1/21/2023 5:13:22 PM(UTC-8)",
        "time_utc": "2023-01-22T01:13:22Z",
        "time_local": "2023-01-21T17:13:22-0800",
        "time_display": "01/21/2023 05:13:22 PM UTC-08:00",
        "unix_timestamp": 1674350002,
        "minutes_to_incident": 46.37,
        "raw_timestamp": "2023-01-21T17:13:22.44-08:00"
      }
    },
    {
      "type": "Feature",
      "geometry": {
        "type": "Point",
        "coordinates": [
          -118.0781969,
          33.894018,
          0.0
        ]
      },
      "properties": {
        "sequence": 138,
        "name": "1/21/2023 6:01:17 PM(UTC-8)",
        "time_utc": "2023-01-22T02:01:17Z",
        "time_local": "2023-01-21T18:01:17-0800",
        "time_display": "01/21/2023 06:01:17 PM UTC-08:00",
        "unix_timestamp": 1674352877,
        "minutes_to_incident": 94.29,
        "raw_timestamp": "2023-01-21T18:01:17.544-08:00"
      }
    },
    {
      "type": "Feature",
      "geometry": {
        "type": "Point",
        "coordinates": [
          -118.0796212,
          33.8939966,
          0.0
        ]
      },
      "properties": {
        "sequence": 139,
        "name": "1/21/2023 6:03:55 PM(UTC-8)",
        "time_utc": "2023-01-22T02:03:55Z",
        "time_local": "2023-01-21T18:03:55-0800",
        "time_display": "01/21/2023 06:03:55 PM UTC-08:00",
        "unix_timestamp": 1674353035,
        "minutes_to_incident": 96.93,
        "raw_timestamp": "2023-01-21T18:03:55.836-08:00"
      }
    },
    {
      "type": "Feature",
      "geometry": {
        "type": "Point",
        "coordinates": [
          -118.0801398,
          33.8940447,
          0.0
        ]
      },
      "properties": {
        "sequence": 140,
        "name": "1/21/2023 6:04:29 PM(UTC-8)",
        "time_utc": "2023-01-22T02:04:29Z",
        "time_local": "2023-01-21T18:04:29-0800",
        "time_display": "01/21/2023 06:04:29 PM UTC-08:00",
        "unix_timestamp": 1674353069,
        "minutes_to_incident": 97.49,
        "raw_timestamp": "2023-01-21T18:04:29.159-08:00"
      }
    },
    {
      "type": "Feature",
      "geometry": {
        "type": "Point",
        "coordinates": [
          -118.0796,
          33.89535,
          0.0
        ]
      },
      "properties": {
        "sequence": 141,
        "name": "1/21/2023 6:04:48 PM(UTC-8)",
        "time_utc": "2023-01-22T02:04:48Z",
        "time_local": "2023-01-21T18:04:48-0800",
        "time_display": "01/21/2023 06:04:48 PM UTC-08:00",
        "unix_timestamp": 1674353088,
        "minutes_to_incident": 97.8,
        "raw_timestamp": "2023-01-21T18:04:48-08:00"
      }
    },
    {
      "type": "Feature",
      "geometry": {
        "type": "Point",
        "coordinates": [
          -118.0802105,
          33.8941278,
          0.0
        ]
      },
      "properties": {
        "sequence": 142,
        "name": "1/21/2023 6:14:41 PM(UTC-8)",
        "time_utc": "2023-01-22T02:14:41Z",
        "time_local": "2023-01-21T18:14:41-0800",
        "time_display": "01/21/2023 06:14:41 PM UTC-08:00",
        "unix_timestamp": 1674353681,
        "minutes_to_incident": 107.7,
        "raw_timestamp": "2023-01-21T18:14:41.984-08:00"
      }
    },
    {
      "type": "Feature",
      "geometry": {
        "type": "Point",
        "coordinates": [
          -118.0801114,
          33.8940057,
          0.0
        ]
      },
      "properties": {
        "sequence": 143,
        "name": "1/21/2023 6:15:31 PM(UTC-8)",
        "time_utc": "2023-01-22T02:15:31Z",
        "time_local": "2023-01-21T18:15:31-0800",
        "time_display": "01/21/2023 06:15:31 PM UTC-08:00",
        "unix_timestamp": 1674353731,
        "minutes_to_incident": 108.52,
        "raw_timestamp": "2023-01-21T18:15:31.436-08:00"
      }
    },
    {
      "type": "Feature",
      "geometry": {
        "type": "Point",
        "coordinates": [
          -118.080233,
          33.8941135,
          0.0
        ]
      },
      "properties": {
        "sequence": 144,
        "name": "1/21/2023 6:20:39 PM(UTC-8)",
        "time_utc": "2023-01-22T02:20:39Z",
        "time_local": "2023-01-21T18:20:39-0800",
        "time_display": "01/21/2023 06:20:39 PM UTC-08:00",
        "unix_timestamp": 1674354039,
        "minutes_to_incident": 113.66,
        "raw_timestamp": "2023-01-21T18:20:39.311-08:00"
      }
    },
    {
      "type": "Feature",
      "geometry": {
        "type": "Point",
        "coordinates": [
          -118.0801374,
          33.8940901,
          0.0
        ]
      },
      "properties": {
        "sequence": 145,
        "name": "1/21/2023 6:50:43 PM(UTC-8)",
        "time_utc": "2023-01-22T02:50:43Z",
        "time_local": "2023-01-21T18:50:43-0800",
        "time_display": "01/21/2023 06:50:43 PM UTC-08:00",
        "unix_timestamp": 1674355843,
        "minutes_to_incident": 143.73,
        "raw_timestamp": "2023-01-21T18:50:43.838-08:00"
      }
    },
    {
      "type": "Feature",
      "geometry": {
        "type": "Point",
        "coordinates": [
          -118.0801798,
          33.8941615,
          0.0
        ]
      },
      "properties": {
        "sequence": 146,
        "name": "1/21/2023 6:51:17 PM(UTC-8)",
        "time_utc": "2023-01-22T02:51:17Z",
        "time_local": "2023-01-21T18:51:17-0800",
        "time_display": "01/21/2023 06:51:17 PM UTC-08:00",
        "unix_timestamp": 1674355877,
        "minutes_to_incident": 144.3,
        "raw_timestamp": "2023-01-21T18:51:17.95-08:00"
      }
    },
    {
      "type": "Feature",
      "geometry": {
        "type": "Point",
        "coordinates": [
          -118.0801627,
          33.8941246,
          0.0
        ]
      },
      "properties": {
        "sequence": 147,
        "name": "1/21/2023 6:56:39 PM(UTC-8)",
        "time_utc": "2023-01-22T02:56:39Z",
        "time_local": "2023-01-21T18:56:39-0800",
        "time_display": "01/21/2023 06:56:39 PM UTC-08:00",
        "unix_timestamp": 1674356199,
        "minutes_to_incident": 149.66,
        "raw_timestamp": "2023-01-21T18:56:39.538-08:00"
      }
    },
    {
      "type": "Feature",
      "geometry": {
        "type": "Point",
        "coordinates": [
          -118.0800412,
          33.8939179,
          0.0
        ]
      },
      "properties": {
        "sequence": 148,
        "name": "1/21/2023 7:15:31 PM(UTC-8)",
        "time_utc": "2023-01-22T03:15:31Z",
        "time_local": "2023-01-21T19:15:31-0800",
        "time_display": "01/21/2023 07:15:31 PM UTC-08:00",
        "unix_timestamp": 1674357331,
        "minutes_to_incident": 168.52,
        "raw_timestamp": "2023-01-21T19:15:31.04-08:00"
      }
    }
  ]
}